STARLINK-36719          
1 67648U 26022A   26054.05132724  .00140089  00000+0  92321-3 0  9995
2 67648  97.2832  87.2930 0001418  30.7142 329.4206 15.75228888  3243
STARLINK-36342          
1 67649U 26022B   26054.05060934  .00219885  00000+0  14293-2 0  9991
2 67649  97.2835  87.2936 0001644  95.5232 264.6221 15.75320621  3248
STARLINK-36703          
1 67650U 26022C   26054.04956621  .00222835  00000+0  14518-2 0  9998
2 67650  97.2838  87.2953 0002074  92.2151 267.9352 15.75259689  3240
STARLINK-36696          
1 67651U 26022D   26054.36544146  .00378262  00000+0  24174-2 0  9994
2 67651  97.2836  87.6311 0002355 105.5644 254.5882 15.75274763  3293
STARLINK-36699          
1 67652U 26022E   26054.36473593  .00354009  00000+0  22699-2 0  9995
2 67652  97.2837  87.6321 0002094  91.1978 268.9527 15.75265312  3291
STARLINK-36694          
1 67653U 26022F   26054.36261652  .00341706  00000+0  21916-2 0  9998
2 67653  97.2833  87.6351 0002305  99.4979 260.6547 15.75292904  3296
STARLINK-36620          
1 67654U 26022G   26054.36226450  .00287627  00000+0  18587-2 0  9997
2 67654  97.2840  87.6348 0002832  95.7138 264.4450 15.75267171  3295
STARLINK-36720          
1 67655U 26022H   26054.36050060  .00346309  00000+0  22225-2 0  9997
2 67655  97.2837  87.6376 0002521 101.7028 258.4520 15.75265869  3297
STARLINK-36688          
1 67656U 26022J   26054.35979515  .00331391  00000+0  21315-2 0  9996
2 67656  97.2838  87.6376 0002163 106.4004 253.7499 15.75256052  3294
STARLINK-36706          
1 67657U 26022K   26054.35838133  .00370693  00000+0  23701-2 0  9996
2 67657  97.2839  87.6391 0002228 122.0531 238.0951 15.75284669  3298
STARLINK-36701          
1 67658U 26022L   26054.35732462  .00344489  00000+0  22121-2 0  9994
2 67658  97.2838  87.6412 0001809 100.3356 259.8113 15.75257851  3294
STARLINK-36642          
1 67659U 26022M   26054.35626609  .00335970  00000+0  21595-2 0  9999
2 67659  97.2839  87.6432 0002275 102.3575 257.7945 15.75258808  3294
