CCSDS_OMM_VERS = 2.0
CREATION_DATE  = 
ORIGINATOR     = 

OBJECT_NAME    = STARLINK-36719
OBJECT_ID      = 2026-022A
CENTER_NAME    = EARTH
REF_FRAME      = TEME
TIME_SYSTEM    = UTC
MEAN_ELEMENT_THEORY = SGP/SGP4

EPOCH          = 2026-02-23T01:13:54.673536
MEAN_MOTION    = 15.75228888
ECCENTRICITY   = .00014185
INCLINATION    = 97.2832
RA_OF_ASC_NODE = 87.2930
ARG_OF_PERICENTER = 30.7142
MEAN_ANOMALY   = 329.4206

EPHEMERIS_TYPE = 0
CLASSIFICATION_TYPE = U
NORAD_CAT_ID   = 67648
ELEMENT_SET_NO = 999
REV_AT_EPOCH   = 324
BSTAR          = .92320864E-3
MEAN_MOTION_DOT = .140089E-2
MEAN_MOTION_DDOT = 0

CCSDS_OMM_VERS = 2.0
CREATION_DATE  = 
ORIGINATOR     = 

OBJECT_NAME    = STARLINK-36342
OBJECT_ID      = 2026-022B
CENTER_NAME    = EARTH
REF_FRAME      = TEME
TIME_SYSTEM    = UTC
MEAN_ELEMENT_THEORY = SGP/SGP4

EPOCH          = 2026-02-23T01:12:52.646976
MEAN_MOTION    = 15.75320621
ECCENTRICITY   = .00016446
INCLINATION    = 97.2835
RA_OF_ASC_NODE = 87.2936
ARG_OF_PERICENTER = 95.5232
MEAN_ANOMALY   = 264.6221

EPHEMERIS_TYPE = 0
CLASSIFICATION_TYPE = U
NORAD_CAT_ID   = 67649
ELEMENT_SET_NO = 999
REV_AT_EPOCH   = 324
BSTAR          = .14293422E-2
MEAN_MOTION_DOT = .219885E-2
MEAN_MOTION_DDOT = 0

CCSDS_OMM_VERS = 2.0
CREATION_DATE  = 
ORIGINATOR     = 

OBJECT_NAME    = STARLINK-36703
OBJECT_ID      = 2026-022C
CENTER_NAME    = EARTH
REF_FRAME      = TEME
TIME_SYSTEM    = UTC
MEAN_ELEMENT_THEORY = SGP/SGP4

EPOCH          = 2026-02-23T01:11:22.520544
MEAN_MOTION    = 15.75259689
ECCENTRICITY   = .00020748
INCLINATION    = 97.2838
RA_OF_ASC_NODE = 87.2953
ARG_OF_PERICENTER = 92.2151
MEAN_ANOMALY   = 267.9352

EPHEMERIS_TYPE = 0
CLASSIFICATION_TYPE = U
NORAD_CAT_ID   = 67650
ELEMENT_SET_NO = 999
REV_AT_EPOCH   = 324
BSTAR          = .14517909E-2
MEAN_MOTION_DOT = .222835E-2
MEAN_MOTION_DDOT = 0

CCSDS_OMM_VERS = 2.0
CREATION_DATE  = 
ORIGINATOR     = 

OBJECT_NAME    = STARLINK-36696
OBJECT_ID      = 2026-022D
CENTER_NAME    = EARTH
REF_FRAME      = TEME
TIME_SYSTEM    = UTC
MEAN_ELEMENT_THEORY = SGP/SGP4

EPOCH          = 2026-02-23T08:46:14.142144
MEAN_MOTION    = 15.75274763
ECCENTRICITY   = .0002355
INCLINATION    = 97.2836
RA_OF_ASC_NODE = 87.6311
ARG_OF_PERICENTER = 105.5644
MEAN_ANOMALY   = 254.5882

EPHEMERIS_TYPE = 0
CLASSIFICATION_TYPE = U
NORAD_CAT_ID   = 67651
ELEMENT_SET_NO = 999
REV_AT_EPOCH   = 329
BSTAR          = .24174E-2
MEAN_MOTION_DOT = .378262E-2
MEAN_MOTION_DDOT = 0

CCSDS_OMM_VERS = 2.0
CREATION_DATE  = 
ORIGINATOR     = 

OBJECT_NAME    = STARLINK-36699
OBJECT_ID      = 2026-022E
CENTER_NAME    = EARTH
REF_FRAME      = TEME
TIME_SYSTEM    = UTC
MEAN_ELEMENT_THEORY = SGP/SGP4

EPOCH          = 2026-02-23T08:45:13.184352
MEAN_MOTION    = 15.75265312
ECCENTRICITY   = .0002094
INCLINATION    = 97.2837
RA_OF_ASC_NODE = 87.6321
ARG_OF_PERICENTER = 91.1978
MEAN_ANOMALY   = 268.9527

EPHEMERIS_TYPE = 0
CLASSIFICATION_TYPE = U
NORAD_CAT_ID   = 67652
ELEMENT_SET_NO = 999
REV_AT_EPOCH   = 329
BSTAR          = .22699E-2
MEAN_MOTION_DOT = .354009E-2
MEAN_MOTION_DDOT = 0

CCSDS_OMM_VERS = 2.0
CREATION_DATE  = 
ORIGINATOR     = 

OBJECT_NAME    = STARLINK-36694
OBJECT_ID      = 2026-022F
CENTER_NAME    = EARTH
REF_FRAME      = TEME
TIME_SYSTEM    = UTC
MEAN_ELEMENT_THEORY = SGP/SGP4

EPOCH          = 2026-02-23T08:42:10.067328
MEAN_MOTION    = 15.75292904
ECCENTRICITY   = .0002305
INCLINATION    = 97.2833
RA_OF_ASC_NODE = 87.6351
ARG_OF_PERICENTER = 99.4979
MEAN_ANOMALY   = 260.6547

EPHEMERIS_TYPE = 0
CLASSIFICATION_TYPE = U
NORAD_CAT_ID   = 67653
ELEMENT_SET_NO = 999
REV_AT_EPOCH   = 329
BSTAR          = .21916E-2
MEAN_MOTION_DOT = .341706E-2
MEAN_MOTION_DDOT = 0

CCSDS_OMM_VERS = 2.0
CREATION_DATE  = 
ORIGINATOR     = 

OBJECT_NAME    = STARLINK-36620
OBJECT_ID      = 2026-022G
CENTER_NAME    = EARTH
REF_FRAME      = TEME
TIME_SYSTEM    = UTC
MEAN_ELEMENT_THEORY = SGP/SGP4

EPOCH          = 2026-02-23T08:41:39.652800
MEAN_MOTION    = 15.75267171
ECCENTRICITY   = .0002832
INCLINATION    = 97.2840
RA_OF_ASC_NODE = 87.6348
ARG_OF_PERICENTER = 95.7138
MEAN_ANOMALY   = 264.4450

EPHEMERIS_TYPE = 0
CLASSIFICATION_TYPE = U
NORAD_CAT_ID   = 67654
ELEMENT_SET_NO = 999
REV_AT_EPOCH   = 329
BSTAR          = .18587E-2
MEAN_MOTION_DOT = .287627E-2
MEAN_MOTION_DDOT = 0

CCSDS_OMM_VERS = 2.0
CREATION_DATE  = 
ORIGINATOR     = 

OBJECT_NAME    = STARLINK-36720
OBJECT_ID      = 2026-022H
CENTER_NAME    = EARTH
REF_FRAME      = TEME
TIME_SYSTEM    = UTC
MEAN_ELEMENT_THEORY = SGP/SGP4

EPOCH          = 2026-02-23T08:39:07.251840
MEAN_MOTION    = 15.75265869
ECCENTRICITY   = .0002521
INCLINATION    = 97.2837
RA_OF_ASC_NODE = 87.6376
ARG_OF_PERICENTER = 101.7028
MEAN_ANOMALY   = 258.4520

EPHEMERIS_TYPE = 0
CLASSIFICATION_TYPE = U
NORAD_CAT_ID   = 67655
ELEMENT_SET_NO = 999
REV_AT_EPOCH   = 329
BSTAR          = .22225E-2
MEAN_MOTION_DOT = .346309E-2
MEAN_MOTION_DDOT = 0

CCSDS_OMM_VERS = 2.0
CREATION_DATE  = 
ORIGINATOR     = 

OBJECT_NAME    = STARLINK-36688
OBJECT_ID      = 2026-022J
CENTER_NAME    = EARTH
REF_FRAME      = TEME
TIME_SYSTEM    = UTC
MEAN_ELEMENT_THEORY = SGP/SGP4

EPOCH          = 2026-02-23T08:38:06.300960
MEAN_MOTION    = 15.75256052
ECCENTRICITY   = .0002163
INCLINATION    = 97.2838
RA_OF_ASC_NODE = 87.6376
ARG_OF_PERICENTER = 106.4004
MEAN_ANOMALY   = 253.7499

EPHEMERIS_TYPE = 0
CLASSIFICATION_TYPE = U
NORAD_CAT_ID   = 67656
ELEMENT_SET_NO = 999
REV_AT_EPOCH   = 329
BSTAR          = .21315E-2
MEAN_MOTION_DOT = .331391E-2
MEAN_MOTION_DDOT = 0

CCSDS_OMM_VERS = 2.0
CREATION_DATE  = 
ORIGINATOR     = 

OBJECT_NAME    = STARLINK-36706
OBJECT_ID      = 2026-022K
CENTER_NAME    = EARTH
REF_FRAME      = TEME
TIME_SYSTEM    = UTC
MEAN_ELEMENT_THEORY = SGP/SGP4

EPOCH          = 2026-02-23T08:36:04.146912
MEAN_MOTION    = 15.75284669
ECCENTRICITY   = .0002228
INCLINATION    = 97.2839
RA_OF_ASC_NODE = 87.6391
ARG_OF_PERICENTER = 122.0531
MEAN_ANOMALY   = 238.0951

EPHEMERIS_TYPE = 0
CLASSIFICATION_TYPE = U
NORAD_CAT_ID   = 67657
ELEMENT_SET_NO = 999
REV_AT_EPOCH   = 329
BSTAR          = .23701E-2
MEAN_MOTION_DOT = .370693E-2
MEAN_MOTION_DDOT = 0

CCSDS_OMM_VERS = 2.0
CREATION_DATE  = 
ORIGINATOR     = 

OBJECT_NAME    = STARLINK-36701
OBJECT_ID      = 2026-022L
CENTER_NAME    = EARTH
REF_FRAME      = TEME
TIME_SYSTEM    = UTC
MEAN_ELEMENT_THEORY = SGP/SGP4

EPOCH          = 2026-02-23T08:34:32.847168
MEAN_MOTION    = 15.75257851
ECCENTRICITY   = .0001809
INCLINATION    = 97.2838
RA_OF_ASC_NODE = 87.6412
ARG_OF_PERICENTER = 100.3356
MEAN_ANOMALY   = 259.8113

EPHEMERIS_TYPE = 0
CLASSIFICATION_TYPE = U
NORAD_CAT_ID   = 67658
ELEMENT_SET_NO = 999
REV_AT_EPOCH   = 329
BSTAR          = .22121E-2
MEAN_MOTION_DOT = .344489E-2
MEAN_MOTION_DDOT = 0

CCSDS_OMM_VERS = 2.0
CREATION_DATE  = 
ORIGINATOR     = 

OBJECT_NAME    = STARLINK-36642
OBJECT_ID      = 2026-022M
CENTER_NAME    = EARTH
REF_FRAME      = TEME
TIME_SYSTEM    = UTC
MEAN_ELEMENT_THEORY = SGP/SGP4

EPOCH          = 2026-02-23T08:33:01.390176
MEAN_MOTION    = 15.75258808
ECCENTRICITY   = .0002275
INCLINATION    = 97.2839
RA_OF_ASC_NODE = 87.6432
ARG_OF_PERICENTER = 102.3575
MEAN_ANOMALY   = 257.7945

EPHEMERIS_TYPE = 0
CLASSIFICATION_TYPE = U
NORAD_CAT_ID   = 67659
ELEMENT_SET_NO = 999
REV_AT_EPOCH   = 329
BSTAR          = .21595E-2
MEAN_MOTION_DOT = .33597E-2
MEAN_MOTION_DDOT = 0

